{
  "norad_id": 67786,
  "name": "KUIPER-00259",
  "history": [
    {
      "epoch": "2026-03-28T12:27:39.026880Z",
      "apogee_km": 465.2735780567873,
      "perigee_km": 453.5690457384817,
      "latitude_deg": 4.803333582422453e-05,
      "longitude_deg": 115.6735411525843,
      "height_km": 461.76136700634,
      "semi_major_axis_km": 6837.558311897635,
      "eccentricity": 0.0008559,
      "inclination_deg": 51.8825,
      "raan_deg": 128.5246,
      "arg_perigee_deg": 105.7767,
      "mean_anomaly_deg": 254.4164,
      "mean_motion_rev_day": 15.35504867
    }
  ]
}