{"fetched_at":"2026-03-29T02:12:04Z","count":15717,"tles":[{"name":"KUIPER-00259","line1":"1 67786U 26030Y   26087.51920170  .00054613  00000+0  15570-2 0  9991","line2":"2 67786  51.8825 128.5246 0008559 105.7767 254.4164 15.35504867  7987","category":"Other"}]}